{
    "links": {
        "self": "http://www.neowsapp.com/rest/v1/neo/3483055?api_key=iIulBulltgU6a56xZRHN4H3l9WmuAYTsLGpBGhQ2"
    },
    "id": "3483055",
    "neo_reference_id": "3483055",
    "name": "(2009 XV)",
    "designation": "2009 XV",
    "nasa_jpl_url": "http://ssd.jpl.nasa.gov/sbdb.cgi?sstr=3483055",
    "absolute_magnitude_h": 21.0,
    "estimated_diameter": {
        "kilometers": {
            "estimated_diameter_min": 0.1677084622,
            "estimated_diameter_max": 0.3750075218
        },
        "meters": {
            "estimated_diameter_min": 167.7084621628,
            "estimated_diameter_max": 375.0075217981
        },
        "miles": {
            "estimated_diameter_min": 0.1042091748,
            "estimated_diameter_max": 0.2330187988
        },
        "feet": {
            "estimated_diameter_min": 550.2246310023,
            "estimated_diameter_max": 1230.3396778159
        }
    },
    "is_potentially_hazardous_asteroid": true,
    "close_approach_data": [
        {
            "close_approach_date": "2005-07-21",
            "close_approach_date_full": "2005-Jul-21 15:23",
            "epoch_date_close_approach": 1121959380000,
            "relative_velocity": {
                "kilometers_per_second": "21.0845780114",
                "kilometers_per_hour": "75904.4808411577",
                "miles_per_hour": "47164.0925537738"
            },
            "miss_distance": {
                "astronomical": "0.1969544467",
                "lunar": "76.6152797663",
                "kilometers": "29463965.713348529",
                "miles": "18308059.3382825402"
            },
            "orbiting_body": "Earth"
        },
        {
            "close_approach_date": "2009-11-20",
            "close_approach_date_full": "2009-Nov-20 20:14",
            "epoch_date_close_approach": 1258748040000,
            "relative_velocity": {
                "kilometers_per_second": "13.7614579919",
                "kilometers_per_hour": "49541.2487707813",
                "miles_per_hour": "30783.0053820446"
            },
            "miss_distance": {
                "astronomical": "0.0680940658",
                "lunar": "26.4885915962",
                "kilometers": "10186727.203319846",
                "miles": "6329738.7702560348"
            },
            "orbiting_body": "Earth"
        },
        {
            "close_approach_date": "2116-08-10",
            "close_approach_date_full": "2116-Aug-10 10:14",
            "epoch_date_close_approach": 4626497640000,
            "relative_velocity": {
                "kilometers_per_second": "14.8736000614",
                "kilometers_per_hour": "53544.96022095",
                "miles_per_hour": "33270.7559772897"
            },
            "miss_distance": {
                "astronomical": "0.0643759502",
                "lunar": "25.0422446278",
                "kilometers": "9630505.029146074",
                "miles": "5984118.3378568612"
            },
            "orbiting_body": "Earth"
        },
        {
            "close_approach_date": "2120-12-13",
            "close_approach_date_full": "2120-Dec-13 00:38",
            "epoch_date_close_approach": 4763493480000,
            "relative_velocity": {
                "kilometers_per_second": "19.9701783993",
                "kilometers_per_hour": "71892.6422374246",
                "miles_per_hour": "44671.2920613597"
            },
            "miss_distance": {
                "astronomical": "0.149183458",
                "lunar": "58.032365162",
                "kilometers": "22317527.55603446",
                "miles": "13867468.580257148"
            },
            "orbiting_body": "Earth"
        }
    ],
    "orbital_data": {
        "orbit_id": "17",
        "orbit_determination_date": "2017-04-06 08:58:49",
        "first_observation_date": "2009-12-09",
        "last_observation_date": "2010-01-15",
        "data_arc_in_days": 37,
        "observations_used": 105,
        "orbit_uncertainty": "7",
        "minimum_orbit_intersection": ".0234007",
        "jupiter_tisserand_invariant": "3.046",
        "epoch_osculation": "2459000.5",
        "eccentricity": ".6874593828463539",
        "semi_major_axis": "2.566146412178457",
        "inclination": "3.340114701705233",
        "ascending_node_longitude": "44.50947444559458",
        "orbital_period": "1501.483535024425",
        "perihelion_distance": ".8020249833688695",
        "perihelion_argument": "327.0987171031897",
        "aphelion_distance": "4.330267840988043",
        "perihelion_time": "2459642.392612246828",
        "mean_anomaly": "206.0979857464112",
        "mean_motion": ".2397628689242628",
        "equinox": "J2000",
        "orbit_class": {
            "orbit_class_type": "APO",
            "orbit_class_description": "Near-Earth asteroid orbits which cross the Earth’s orbit similar to that of 1862 Apollo",
            "orbit_class_range": "a (semi-major axis) > 1.0 AU; q (perihelion) < 1.017 AU"
        }
    },
    "is_sentry_object": false
}